NORAD_CAT_ID,OBJECT_NAME,OBJECT_TYPE,EPOCH,MEAN_MOTION,ECCENTRICITY,INCLINATION,RA_OF_ASC_NODE,ARG_OF_PERICENTER,MEAN_ANOMALY,BSTAR,MEAN_MOTION_DOT,MEAN_MOTION_DDOT,TLE_LINE0,TLE_LINE1,TLE_LINE2,SEMIMAJOR_AXIS,PERIOD,APOGEE,PERIGEE,DECAYED
49181.0,STARLINK-3059,PAYLOAD,2022-12-09 03:24:47,14.98376019,0.0003543,70.0022,46.1627,282.9496,77.1268,0.0012658,0.00015061,0.0,0 STARLINK-3059,1 49181U 21082BD  22343.14221931  .00015061  00000-0  12658-2 0  9990,2 49181  70.0022  46.1627 0003543 282.9496  77.1268 14.98376019 69438,6950.051,96.104,574.378,569.453,0.0
49181.0,STARLINK-3059,PAYLOAD,2022-12-09 16:13:48,14.98495666,0.0003764,70.0021,44.8159,287.8041,72.2707,0.0045128999999999,0.00054409,0.0,0 STARLINK-3059,1 49181U 21082BD  22343.67625813  .00054409  00000-0  45129-2 0  9993,2 49181  70.0021  44.8159 0003764 287.8041  72.2707 14.98495666 69497,6949.681,96.096,574.161,568.93,0.0
49181.0,STARLINK-3059,PAYLOAD,2022-12-10 05:03:00,14.98293502,0.0003436,70.0017,43.4689,283.0490000000001,77.0285,0.00085063,0.00010062,0.0,0 STARLINK-3059,1 49181U 21082BD  22344.21042148  .00010062  00000-0  85063-3 0  9997,2 49181  70.0017  43.4689 0003436 283.0490  77.0285 14.98293502 69575,6950.306,96.109,574.559,569.783,0.0
49181.0,STARLINK-3059,PAYLOAD,2022-12-10 13:03:39,14.98320741,0.0003072,70.0021,42.6274,273.4959,86.5849,-0.0001458,-1.832e-05,0.0,0 STARLINK-3059,1 49181U 21082BD  22344.54420513 -.00001832  00000-0 -14580-3 0  9992,2 49181  70.0021  42.6274 0003072 273.4959  86.5849 14.98320741 69623,6950.222,96.108,574.222,569.951,0.0
49181.0,STARLINK-3059,PAYLOAD,2022-12-10 16:15:55,14.98313236,0.0003233,70.0024,42.2922,293.1049,66.9769,-0.00036591,-4.454e-05,0.0,0 STARLINK-3059,1 49181U 21082BD  22344.67773050 -.00004454  00000-0 -36591-3 0  9992,2 49181  70.0024  42.2922 0003233 293.1049  66.9769 14.98313236 69646,6950.245,96.108,574.357,569.863,0.0
49181.0,STARLINK-3059,PAYLOAD,2022-12-11 05:05:00,14.98325152,0.0003699,70.0031,40.9447,283.4606,76.61399999999998,0.00026975,3.127e-05,0.0,0 STARLINK-3059,1 49181U 21082BD  22345.21180804  .00003127  00000-0  26975-3 0  9991,2 49181  70.0031  40.9447 0003699 283.4606  76.6140 14.98325152 69728,6950.208000000001,96.107,574.644,569.502,0.0
49181.0,STARLINK-3059,PAYLOAD,2022-12-11 11:29:32,14.98330493,0.0003037,70.0025,40.2698,274.7286,85.3526,0.00039515,4.625e-05,0.0,0 STARLINK-3059,1 49181U 21082BD  22345.47884734  .00004625  00000-0  39515-3 0  9990,2 49181  70.0025  40.2698 0003037 274.7286  85.3526 14.98330493 69780,6950.191,96.107,574.1669999999998,569.946,0.0
49181.0,STARLINK-3059,PAYLOAD,2022-12-11 16:17:56,14.98338065,0.0003249,70.0012,39.7632,277.9154,82.1636,0.0005176,6.09e-05,0.0,0 STARLINK-3059,1 49181U 21082BD  22345.67912540  .00006090  00000-0  51760-3 0  9993,2 49181  70.0012  39.7632 0003249 277.9154  82.1636 14.98338065 69792,6950.168000000002,96.106,574.2909999999998,569.775,0.0
49181.0,STARLINK-3059,PAYLOAD,2022-12-12 11:31:33,14.98338686,0.0003091,70.0013,37.7434,276.3432,83.7375,0.00029958,3.484e-05,0.0,0 STARLINK-3059,1 49181U 21082BD  22346.48024421  .00003484  00000-0  29958-3 0  9993,2 49181  70.0013  37.7434 0003091 276.3432  83.7375 14.98338686 69918,6950.166,96.106,574.179,569.883,0.0
49181.0,STARLINK-3059,PAYLOAD,2022-12-12 21:08:21,14.98345856,0.0003088,70.0013,36.7327,276.1362,83.9445,0.00041034,4.808e-05,0.0,0 STARLINK-3059,1 49181U 21082BD  22346.88079929  .00004808  00000-0  41034-3 0  9990,2 49181  70.0013  36.7327 0003088 276.1362  83.9445 14.98345856 69999,6950.144,96.106,574.155,569.863,0.0
49181.0,STARLINK-3059,PAYLOAD,2022-12-13 13:09:41,14.98339223,0.0003069,70.0016,35.0499,274.726,85.3548,0.00011632,1.296e-05,0.0,0 STARLINK-3059,1 49181U 21082BD  22347.54839850  .00001296  00000-0  11632-3 0  9990,2 49181  70.0016  35.0499 0003069 274.7260  85.3548 14.98339223 70098,6950.1640000000025,96.106,574.1619999999998,569.896,0.0
49181.0,STARLINK-3059,PAYLOAD,2022-12-14 13:11:42,14.98332141,0.000309,70.0014,32.5243,279.164,80.9169,8.2754e-05,8.95e-06,0.0,0 STARLINK-3059,1 49181U 21082BD  22348.54980118  .00000895  00000-0  82754-4 0  9993,2 49181  70.0014  32.5243 0003090 279.1640  80.9169 14.98332141 70227,6950.186,96.107,574.1990000000002,569.904,0.0
49181.0,STARLINK-3059,PAYLOAD,2022-12-15 13:13:43,14.98335784,0.0002848,70.0014,29.9993,279.9315,80.1522,9.3816e-05,1.027e-05,0.0,0 STARLINK-3059,1 49181U 21082BD  22349.55119690  .00001027  00000-0  93816-4 0  9993,2 49181  70.0014  29.9993 0002848 279.9315  80.1522 14.98335784 70373,6950.175,96.107,574.019,570.061,0.0
49181.0,STARLINK-3059,PAYLOAD,2022-12-15 19:38:15,14.98329694,0.0002933,70.0028,29.3255,283.9677,76.1156,-8.814100000000001e-05,-1.144e-05,0.0,0 STARLINK-3059,1 49181U 21082BD  22349.81823838 -.00001144  00000-0 -88141-4 0  9995,2 49181  70.0028  29.3255 0002933 283.9677  76.1156 14.98329694 70432,6950.194,96.107,574.097,570.02,0.0
49181.0,STARLINK-3059,PAYLOAD,2022-12-16 05:15:04,14.98330318,0.0003122,70.0016,28.3168,280.3129,79.7678,5.7099e-05,5.88e-06,0.0,0 STARLINK-3059,1 49181U 21082BD  22350.21879910  .00000588  00000-0  57099-4 0  9990,2 49181  70.0016  28.3168 0003122 280.3129  79.7678 14.98330318 70472,6950.191999999999,96.107,574.227,569.887,0.0
49181.0,STARLINK-3059,PAYLOAD,2022-12-16 13:15:44,14.98333346,0.0003076,70.0015,27.4749,280.6618,79.4195,0.00010205,1.125e-05,0.0,0 STARLINK-3059,1 49181U 21082BD  22350.55259740  .00001125  00000-0  10205-3 0  9995,2 49181  70.0015  27.4749 0003076 280.6618  79.4195 14.98333346 70543,6950.183000000001,96.107,574.185,569.91,0.0
49181.0,STARLINK-3059,PAYLOAD,2022-12-16 19:40:16,14.98329297,0.0003035,70.0014,26.8014,280.1614,79.9203,4.4879e-05,4.43e-06,0.0,0 STARLINK-3059,1 49181U 21082BD  22350.81963960  .00000443  00000-0  44879-4 0  9997,2 49181  70.0014  26.8014 0003035 280.1614  79.9203 14.98329297 70585,6950.195,96.107,574.169,569.951,0.0
49181.0,STARLINK-3059,PAYLOAD,2022-12-17 10:05:29,14.98322996,0.0002985,70.0016,25.2869,277.2805,82.8014,-7.0788e-05,-9.37e-06,0.0,0 STARLINK-3059,1 49181U 21082BD  22351.42048476 -.00000937  00000-0 -70788-4 0  9999,2 49181  70.0016  25.2869 0002985 277.2805  82.8014 14.98322996 70650,6950.215,96.107,574.154,570.005,0.0
49181.0,STARLINK-3059,PAYLOAD,2022-12-17 11:41:37,14.9832729,0.0002995,70.0013,25.1186,276.7791,83.3027,-0.0001671,-2.086e-05,0.0,0 STARLINK-3059,1 49181U 21082BD  22351.48724359 -.00002086  00000-0 -16710-3 0  9997,2 49181  70.0013  25.1186 0002995 276.7791  83.3027 14.98327290 70682,6950.201,96.107,574.148,569.985,0.0
49181.0,STARLINK-3059,PAYLOAD,2022-12-17 19:42:18,14.98328434,0.000307,70.0011,24.2768,277.3893,82.6917,-2.326e-05,-3.71e-06,0.0,0 STARLINK-3059,1 49181U 21082BD  22351.82104463 -.00000371  00000-0 -23260-4 0  9997,2 49181  70.0011  24.2768 0003070 277.3893  82.6917 14.98328434 70738,6950.198,96.107,574.196,569.929,0.0
49181.0,STARLINK-3059,PAYLOAD,2022-12-18 11:43:39,14.98330195,0.0003007,70.0013,22.5937,276.2258,83.8559,0.00023515,2.714e-05,0.0,0 STARLINK-3059,1 49181U 21082BD  22352.48864752  .00002714  00000-0  23515-3 0  9997,2 49181  70.0013  22.5937 0003007 276.2258  83.8559 14.98330195 70813,6950.191999999999,96.107,574.1469999999998,569.967,0.0
49181.0,STARLINK-3059,PAYLOAD,2022-12-18 19:44:19,14.98331101,0.0003013,70.0012,21.7521,276.8725,83.2091,0.00017238,1.964e-05,0.0,0 STARLINK-3059,1 49181U 21082BD  22352.82244782  .00001964  00000-0  17238-3 0  9991,2 49181  70.0012  21.7521 0003013 276.8725  83.2091 14.98331101 70884,6950.189,96.107,574.149,569.96,0.0
49181.0,STARLINK-3059,PAYLOAD,2022-12-19 08:33:23,14.98337407,0.0003029,70.0012,20.4052,275.9954,84.086,0.00038573,4.513e-05,0.0,0 STARLINK-3059,1 49181U 21082BD  22353.35652671  .00004513  00000-0  38573-3 0  9998,2 49181  70.0012  20.4052 0003029 275.9954  84.0860 14.98337407 70967,6950.17,96.107,574.14,569.93,0.0
49181.0,STARLINK-3059,PAYLOAD,2022-12-19 19:46:20,14.98334988,0.0002969,70.0018,19.2269,277.269,82.8132,0.00020523,2.357e-05,0.0,0 STARLINK-3059,1 49181U 21082BD  22353.82384642  .00002357  00000-0  20523-3 0  9990,2 49181  70.0018  19.2269 0002969 277.2690  82.8132 14.98334988 71031,6950.177,96.107,574.106,569.979,0.0
49181.0,STARLINK-3059,PAYLOAD,2022-12-20 11:47:40,14.98335912,0.0003003,70.0012,17.5435,275.9478,84.1339,0.00014216,1.604e-05,0.0,0 STARLINK-3059,1 49181U 21082BD  22354.49144509  .00001604  00000-0  14216-3 0  9996,2 49181  70.0012  17.5435 0003003 275.9478  84.1339 14.98335912 71133,6950.175,96.107,574.127,569.952,0.0
49181.0,STARLINK-3059,PAYLOAD,2022-12-21 03:49:01,14.98327502,0.0003056,70.001,15.8603,273.9813,86.0996,-3.4191e-05,-5.01e-06,0.0,0 STARLINK-3059,1 49181U 21082BD  22355.15904888 -.00000501  00000-0 -34191-4 0  9996,2 49181  70.0010  15.8603 0003056 273.9813  86.0996 14.98327502 71213,6950.201,96.107,574.19,569.942,0.0
49181.0,STARLINK-3059,PAYLOAD,2022-12-21 11:49:42,14.98331213,0.000303,70.0011,15.0186,273.7965,86.2848,5.6277e-05,5.79e-06,0.0,0 STARLINK-3059,1 49181U 21082BD  22355.49284736  .00000579  00000-0  56277-4 0  9998,2 49181  70.0011  15.0186 0003030 273.7965  86.2848 14.98331213 71289,6950.189,96.107,574.16,569.948,0.0
49181.0,STARLINK-3059,PAYLOAD,2022-12-22 03:51:02,14.98330958,0.0003044,69.9996,13.335,272.336,87.745,9.4607e-05,1.036e-05,0.0,0 STARLINK-3059,1 49181U 21082BD  22356.16044801  .00001036  00000-0  94607-4 0  9998,2 49181  69.9996  13.3350 0003044 272.3360  87.7450 14.98330958 71360,6950.19,96.107,574.1709999999998,569.939,0.0
49181.0,STARLINK-3059,PAYLOAD,2022-12-22 08:39:26,14.98332321,0.0003033,69.9996,12.8302,271.762,88.3191,8.593299999999999e-05,9.33e-06,0.0,0 STARLINK-3059,1 49181U 21082BD  22356.36072686  .00000933  00000-0  85933-4 0  9999,2 49181  69.9996  12.8302 0003033 271.7620  88.3191 14.98332321 71412,6950.186,96.107,574.159,569.943,0.0
